NORAD_CAT_ID,OBJECT_NAME,OBJECT_TYPE,EPOCH,MEAN_MOTION,ECCENTRICITY,INCLINATION,RA_OF_ASC_NODE,ARG_OF_PERICENTER,MEAN_ANOMALY,BSTAR,MEAN_MOTION_DOT,MEAN_MOTION_DDOT,TLE_LINE0,TLE_LINE1,TLE_LINE2,SEMIMAJOR_AXIS,PERIOD,APOGEE,PERIGEE,DECAYED
49147.0,STARLINK-3071,PAYLOAD,2023-02-17 10:27:20,14.98333952,0.0002882,69.9996,188.9297,266.516,93.5669,-1.1216e-06,-1.06e-06,0.0,0 STARLINK-3071,1 49147U 21082T   23048.43565844 -.00000106  00000-0 -11216-5 0  9999,2 49147  69.9996 188.9297 0002882 266.5160  93.5669 14.98333952 79769,6950.181,96.107,574.049,570.043,0.0
49147.0,STARLINK-3071,PAYLOAD,2023-02-17 18:28:01,14.98326747,0.0002957,69.9997,188.0881,266.3092,93.7729,-8.0575e-05,-1.054e-05,0.0,0 STARLINK-3071,1 49147U 21082T   23048.76946472 -.00001054  00000-0 -80575-4 0  9991,2 49147  69.9997 188.0881 0002957 266.3092  93.7729 14.98326747 80984,6950.203,96.107,574.123,570.013,0.0
49147.0,STARLINK-3071,PAYLOAD,2023-02-18 10:29:22,14.98325748,0.0003089,69.999,186.4033,263.8941,96.1866,-7.0792e-05,-9.37e-06,0.0,0 STARLINK-3071,1 49147U 21082T   23049.43706575 -.00000937  00000-0 -70792-4 0  9993,2 49147  69.9990 186.4033 0003089 263.8941  96.1866 14.98325748 79910,6950.206,96.107,574.218,569.924,0.0
49147.0,STARLINK-3071,PAYLOAD,2023-02-19 02:30:42,14.98327436,0.0003368,69.9985,184.7206,269.7574,90.3199,5.937e-05,6.15e-06,0.0,0 STARLINK-3071,1 49147U 21082T   23050.10466134  .00000615  00000-0  59370-4 0  9993,2 49147  69.9985 184.7206 0003368 269.7574  90.3199 14.98327436 81187,6950.201,96.107,574.407,569.725,0.0
49147.0,STARLINK-3071,PAYLOAD,2023-02-19 15:19:47,14.98329636,0.0003238,69.9992,183.3746,268.2168,91.8621,0.00012149,1.357e-05,0.0,0 STARLINK-3071,1 49147U 21082T   23050.63873961  .00001357  00000-0  12149-3 0  9997,2 49147  69.9992 183.3746 0003238 268.2168  91.8621 14.98329636 80097,6950.194,96.107,574.309,569.809,0.0
49147.0,STARLINK-3071,PAYLOAD,2023-02-20 02:32:43,14.983262,0.0003221,69.9997,182.1958,269.1968,90.8822,7.9918e-05,8.61e-06,0.0,0 STARLINK-3071,1 49147U 21082T   23051.10606269  .00000861  00000-0  79918-4 0  9992,2 49147  69.9997 182.1958 0003221 269.1968  90.8822 14.98326200 81338,6950.205,96.107,574.308,569.831,0.0
49147.0,STARLINK-3071,PAYLOAD,2023-02-20 10:33:25,14.98309389,0.0003471,69.9989,181.3538,266.3485,93.7277,-0.0001682,-2.098e-05,0.0,0 STARLINK-3071,1 49147U 21082T   23051.43988163 -.00002098  00000-0 -16820-3 0  9992,2 49147  69.9989 181.3538 0003471 266.3485  93.7277 14.98309389 81384,6950.257,96.108,574.534,569.709,0.0
49147.0,STARLINK-3071,PAYLOAD,2023-02-20 13:45:41,14.98310872,0.0003351,69.999,181.0176,267.8128,92.2648,-0.0001513,-1.897e-05,0.0,0 STARLINK-3071,1 49147U 21082T   23051.57340193 -.00001897  00000-0 -15130-3 0  9991,2 49147  69.9990 181.0176 0003351 267.8128  92.2648 14.98310872 80236,6950.252,96.108,574.446,569.788,0.0
49147.0,STARLINK-3071,PAYLOAD,2023-02-21 10:35:26,14.98325103,0.0003368,69.9991,178.83,270.1617,89.9156,5.0429e-06,-3.3e-07,0.0,0 STARLINK-3071,1 49147U 21082T   23052.44127570 -.00000033  00000-0  50429-5 0  9992,2 49147  69.9991 178.8300 0003368 270.1617  89.9156 14.98325103 81532,6950.208,96.107,574.414,569.732,0.0
49147.0,STARLINK-3071,PAYLOAD,2023-02-21 12:11:34,14.98327377,0.0003331,69.9994,178.6617,270.3815,89.6962,2.4043e-05,1.94e-06,0.0,0 STARLINK-3071,1 49147U 21082T   23052.50803407  .00000194  00000-0  24043-4 0  9998,2 49147  69.9994 178.6617 0003331 270.3815  89.6962 14.98327377 80374,6950.201,96.107,574.381,569.751,0.0
49147.0,STARLINK-3071,PAYLOAD,2023-02-21 18:36:05,14.98339667,0.0003253,69.9992,177.9884,270.3382,89.7404,0.00010088,1.111e-05,0.0,0 STARLINK-3071,1 49147U 21082T   23052.77506412  .00001111  00000-0  10088-3 0  9996,2 49147  69.9992 177.9884 0003253 270.3382  89.7404 14.98339667 81583,6950.163,96.106,574.289,569.767,0.0
49147.0,STARLINK-3071,PAYLOAD,2023-02-22 12:13:34,14.98330403,0.0003278,69.9992,176.1369,270.0185,90.0598,0.00030119,3.503e-05,0.0,0 STARLINK-3071,1 49147U 21082T   23053.50942279  .00003503  00000-0  30119-3 0  9997,2 49147  69.9992 176.1369 0003278 270.0185  90.0598 14.98330403 80528,6950.192,96.107,574.335,569.778,0.0
49147.0,STARLINK-3071,PAYLOAD,2023-02-23 12:15:34,14.9834072,0.0003241,69.9993,173.6118,270.5094,89.5694,2.8672e-05,2.49e-06,0.0,0 STARLINK-3071,1 49147U 21082T   23054.51082058  .00000249  00000-0  28672-4 0  9995,2 49147  69.9993 173.6118 0003241 270.5094  89.5694 14.98340720 80676,6950.16,96.106,574.277,569.772,0.0
49147.0,STARLINK-3071,PAYLOAD,2023-02-23 18:40:06,14.98349348,0.0003379,69.9993,172.9392,268.8956,91.1816,-9.2416e-05,-1.196e-05,0.0,0 STARLINK-3071,1 49147U 21082T   23054.77785499 -.00001196  00000-0 -92416-4 0  9993,2 49147  69.9993 172.9392 0003379 268.8956  91.1816 14.98349348 81885,6950.133,96.106,574.347,569.65,0.0
49147.0,STARLINK-3071,PAYLOAD,2023-02-24 01:04:39,14.98334142,0.0002771,70.0013,172.2634,277.2842,82.8002,-3.2555e-05,-4.81e-06,0.0,0 STARLINK-3071,1 49147U 21082T   23055.04490224 -.00000481  00000-0 -32555-4 0  9997,2 49147  70.0013 172.2634 0002771 277.2842  82.8002 14.98334142 81921,6950.18,96.107,573.971,570.119,0.0
49147.0,STARLINK-3071,PAYLOAD,2023-02-24 12:17:36,14.98333873,0.0003172,69.9996,171.0881,269.0658,91.0137,-0.00011335,-1.445e-05,0.0,0 STARLINK-3071,1 49147U 21082T   23055.51222298 -.00001445  00000-0 -11335-3 0  9996,2 49147  69.9996 171.0881 0003172 269.0658  91.0137 14.98333873 80828,6950.181,96.107,574.251,569.841,0.0
49147.0,STARLINK-3071,PAYLOAD,2023-02-24 17:05:59,14.98335255,0.0002638,70.0002,170.5821,256.745,103.3415,-5.3565e-05,-7.32e-06,0.0,0 STARLINK-3071,1 49147U 21082T   23055.71249931 -.00000732  00000-0 -53565-4 0  9991,2 49147  70.0002 170.5821 0002638 256.7450 103.3415 14.98335255 80851,6950.177,96.107,573.875,570.208,0.0
49147.0,STARLINK-3071,PAYLOAD,2023-02-25 05:55:04,14.98324014,0.0002746,70.0003,169.2365,263.5644,96.5202,-2.4501e-05,-3.85e-06,0.0,0 STARLINK-3071,1 49147U 21082T   23056.24658486 -.00000385  00000-0 -24501-4 0  9991,2 49147  70.0003 169.2365 0002746 263.5644  96.5202 14.98324014 82109,6950.211,96.107,573.985,570.168,0.0
49147.0,STARLINK-3071,PAYLOAD,2023-02-25 12:19:37,14.9832042,0.0002857,70.0001,168.5627,266.2519,93.8313,-2.0004e-05,-3.32e-06,0.0,0 STARLINK-3071,1 49147U 21082T   23056.51362796 -.00000332  00000-0 -20004-4 0  9993,2 49147  70.0001 168.5627 0002857 266.2519  93.8313 14.98320420 80977,6950.223,96.108,574.073,570.102,0.0
49147.0,STARLINK-3071,PAYLOAD,2023-02-25 17:08:01,14.98322518,0.0002785,70.0003,168.0577,263.5071,96.5771,-3.3475e-05,-4.92e-06,0.0,0 STARLINK-3071,1 49147U 21082T   23056.71390799 -.00000492  00000-0 -33475-4 0  9992,2 49147  70.0003 168.0577 0002785 263.5071  96.5771 14.98322518 81004,6950.216,96.107,574.017,570.145,0.0
49147.0,STARLINK-3071,PAYLOAD,2023-02-26 01:08:41,14.98333532,0.0002816,70.0008,167.2152,266.6834,93.4003,3.5456e-06,-5.1e-07,0.0,0 STARLINK-3071,1 49147U 21082T   23057.04770078 -.00000051  00000-0  35456-5 0  9993,2 49147  70.0008 167.2152 0002816 266.6834  93.4003 14.98333532 82222,6950.182,96.107,574.004,570.09,0.0
49147.0,STARLINK-3071,PAYLOAD,2023-02-26 10:45:29,14.98329064,0.000309,69.9994,166.2055,269.2551,90.8254,0.00024303,2.808e-05,0.0,0 STARLINK-3071,1 49147U 21082T   23057.44825667  .00002808  00000-0  24303-3 0  9990,2 49147  69.9994 166.2055 0003090 269.2551  90.8254 14.98329064 81115,6950.196,96.107,574.208,569.913,0.0
49147.0,STARLINK-3071,PAYLOAD,2023-02-26 15:33:53,14.98338686,0.0003053,69.9998,165.7004,267.3534,92.7275,0.00015858,1.8e-05,0.0,0 STARLINK-3071,1 49147U 21082T   23057.64853165  .00001800  00000-0  15858-3 0  9992,2 49147  69.9998 165.7004 0003053 267.3534  92.7275 14.98338686 82313,6950.166,96.106,574.153,569.909,0.0
49147.0,STARLINK-3071,PAYLOAD,2023-02-26 17:10:01,14.983398,0.0002938,70.0,165.5321,266.1587,93.9236,0.00017091,1.947e-05,0.0,0 STARLINK-3071,1 49147U 21082T   23057.71529034  .00001947  00000-0  17091-3 0  9998,2 49147  70.0000 165.5321 0002938 266.1587  93.9236 14.98339800 81156,6950.163,96.106,574.07,569.986,0.0
49147.0,STARLINK-3071,PAYLOAD,2023-02-27 07:35:13,14.98334727,0.000304,69.9998,164.0172,268.7517,91.3293,0.00018603,2.128e-05,0.0,0 STARLINK-3071,1 49147U 21082T   23058.31613133  .00002128  00000-0  18603-3 0  9991,2 49147  69.9998 164.0172 0003040 268.7517  91.3293 14.98334727 81241,6950.178,96.107,574.156,569.93,0.0
49147.0,STARLINK-3071,PAYLOAD,2023-02-27 15:35:53,14.98342758,0.0002522,70.0011,163.1762,264.2868,95.8004,0.00024537,2.837e-05,0.0,0 STARLINK-3071,1 49147U 21082T   23058.64992361  .00002837  00000-0  24537-3 0  9990,2 49147  70.0011 163.1762 0002522 264.2868  95.8004 14.98342758 81296,6950.153,96.106,573.771,570.266,0.0
49147.0,STARLINK-3071,PAYLOAD,2023-02-27 23:36:33,14.9834337,0.000279,70.0017,162.3345,272.1898,87.8942,0.00015217,1.724e-05,0.0,0 STARLINK-3071,1 49147U 21082T   23058.98372256  .00001724  00000-0  15217-3 0  9991,2 49147  70.0017 162.3345 0002790 272.1898  87.8942 14.98343370 82517,6950.152,96.106,573.956,570.077,0.0
49147.0,STARLINK-3071,PAYLOAD,2023-02-28 14:01:47,14.98331024,0.0002305,70.0016,160.8215,253.9734,106.1172,-6.1046e-05,-8.21e-06,0.0,0 STARLINK-3071,1 49147U 21082T   23059.58457251 -.00000821  00000-0 -61046-4 0  9998,2 49147  70.0016 160.8215 0002305 253.9734 106.1172 14.98331024 82606,6950.19,96.107,573.657,570.453,0.0
49147.0,STARLINK-3071,PAYLOAD,2023-03-01 10:51:33,14.98311016,0.0002831,70.0012,158.633,270.2736,89.8098,-0.00036563,-4.451e-05,0.0,0 STARLINK-3071,1 49147U 21082T   23060.45247636 -.00004451  00000-0 -36563-3 0  9998,2 49147  70.0012 158.6330 0002831 270.2736  89.8098 14.98311016 82730,6950.252,96.108,574.084,570.149,0.0
49147.0,STARLINK-3071,PAYLOAD,2023-03-01 14:03:49,14.98319857,0.000223,70.0014,158.2982,262.033,98.0576,-0.00049485,-5.99e-05,0.0,0 STARLINK-3071,1 49147U 21082T   23060.58599523 -.00005990  00000-0 -49485-3 0  9993,2 49147  70.0014 158.2982 0002230 262.0330  98.0576 14.98319857 81589,6950.224,96.108,573.639,570.539,0.0
